{"type":"FeatureCollection","name":"Mexico mask near El Paso (Mexico minus El Paso city)","features":[{"type":"Feature","properties":{"role":"mexico"},"geometry":{"type":"Polygon","coordinates":[[[-106.22289,31.50459],[-106.21873,31.49462],[-106.21744,31.48872],[-106.21542,31.48392],[-106.20925,31.47731],[-106.17447,31.46025],[-106.16432,31.4478],[-106.14111,31.43917],[-106.09938,31.42888],[-106.0653,31.41095],[-106.04626,31.40465],[-106.02115,31.40217],[-106.00474,31.39695],[-105.9612,31.37101],[-105.94852,31.36124],[-105.94177,31.35235],[-105.93456,31.3355],[-105.92805,31.32646],[-105.9088,31.317],[-105.89715,31.30951],[-105.89699,31.306],[-105.88015,31.30088],[-105.86198,31.28838],[-105.78483,31.21102],[-105.77785,31.19272],[-105.76819,31.18001],[-105.7,31.14195],[-105.7,31.1],[-107.2,31.1],[-107.2,31.748],[-106.63659,31.748],[-106.61267314087759,31.772],[-106.545,31.772],[-106.545,31.773866569301074],[-106.52278975598755,31.77382822343347],[-106.52133861199326,31.772681563609208],[-106.51792634033247,31.770551591054183],[-106.51725865549582,31.77038143438527],[-106.5151247276002,31.77042352265785],[-106.51403617132235,31.76940474222907],[-106.51324082526537,31.768188368957723],[-106.51207909359162,31.76258255359383],[-106.51082677984111,31.760360267228197],[-106.50982729081609,31.759873179080472],[-106.50715223444585,31.759950820810758],[-106.50428564023545,31.757321539646785],[-106.50211409054171,31.756107359974838],[-106.50074691284813,31.754569305304788],[-106.49696445582497,31.752817399550104],[-106.4957292591076,31.751172302996217],[-106.49464054984749,31.75050815855847],[-106.49408871643122,31.749860381888816],[-106.49282694920178,31.7492187410663],[-106.49104469229796,31.74783589640797],[-106.48797253587774,31.746628971422588],[-106.48605,31.74651],[-106.48440351818593,31.746635586650566],[-106.47269773044512,31.74941961372091],[-106.47128297036177,31.750161910385692],[-106.46956808076632,31.752095004291075],[-106.46839158958343,31.75542680316036],[-106.44176819889466,31.757487735622004],[-106.4381097832119,31.755228256521296],[-106.43401233966284,31.75347253950301],[-106.43003412879445,31.75264421056378],[-106.42207394651066,31.751746109740925],[-106.41895144308715,31.75090565847555],[-106.41603079560032,31.74976895522273],[-106.41442926629259,31.74897772348141],[-106.41215170452774,31.74751422572294],[-106.40868514062474,31.745924335690557],[-106.40425501149326,31.743219582190008],[-106.40193958178111,31.742185378184665],[-106.39777590093746,31.739868056834325],[-106.3952066563146,31.7381566873708],[-106.39126681076155,31.736370904404154],[-106.38179455128216,31.731114877602074],[-106.3804351922881,31.72982337417661],[-106.379075129947,31.727764364155227],[-106.37511841995767,31.714420526680787],[-106.37316515410195,31.711695742263608],[-106.37069802835467,31.709646506759135],[-106.35911437121224,31.70222272367726],[-106.35208044675215,31.697467482438487],[-106.3504745679469,31.695949836533423],[-106.34934890684949,31.693973388975287],[-106.33541989299793,31.662867317018694],[-106.33020113982114,31.656976011551112],[-106.32991937402979,31.656280248696373],[-106.32555852141108,31.649339836866744],[-106.30894311693243,31.62889600298474],[-106.30449582947493,31.62169293395299],[-106.30354375210098,31.621280891526244],[-106.30212773149523,31.621837759733666],[-106.2863,31.58014],[-106.27475,31.56262],[-106.23266,31.51994],[-106.22289,31.50459]]]}}]}